STARLINK-36346          
1 67818U 26032X   26072.58142388  .00198641  00000+0  12987-2 0  9996
2 67818  97.2847 259.3745 0001573  40.7827 319.3556 15.75247674  5407
STARLINK-36788          
1 67819U 26032Y   26072.60753755  .00138068  00000+0  90993-3 0  9997
2 67819  97.2838 259.3385 0001367  88.3449 271.7973 15.75233816  5404
STARLINK-36353          
1 67820U 26032Z   26072.60365412  .00217155  00000+0  14153-2 0  9996
2 67820  97.2837 259.3435 0001427  99.6986 260.4440 15.75267210  5408
STARLINK-36644          
1 67821U 26033A   26072.58334491 -.01956884  00000+0 -15547-1 0  9997
2 67821  42.9995 247.7483 0001320 264.9969 278.0197 15.73249261  5289
STARLINK-36643          
1 67822U 26033B   26072.58334491 -.01955056  00000+0 -18882-1 0  9993
2 67822  42.9991 247.8469 0001358 269.7970 233.6653 15.68654723  5288
STARLINK-36646          
1 67823U 26033C   26072.58334491 -.01956122  00000+0 -16613-1 0  9999
2 67823  42.9994 247.7584 0001370 268.4390 270.3831 15.71701107  5295
STARLINK-36647          
1 67824U 26033D   26072.58334491 -.01958818  00000+0 -18020-1 0  9998
2 67824  42.9991 247.7936 0001327 265.2887 259.5410 15.69823540  5297
STARLINK-36648          
1 67825U 26033E   26072.47944722  .00499461  00000+0  22692-2 0  9993
2 67825  42.9985 248.2594 0005611 222.1010 137.9431 15.81733104  5222
STARLINK-35865          
1 67826U 26033F   26072.58334491 -.01969504  00000+0 -15348-1 0  9994
2 67826  42.9993 247.6855 0001336 263.2446 304.5318 15.73712691  5296
STARLINK-36289          
1 67827U 26033G   26072.58334491 -.01955385  00000+0 -18309-1 0  9997
2 67827  42.9994 247.7726 0001324 264.7502 268.3482 15.69396714  5290
STARLINK-36670          
1 67828U 26033H   26072.58334491 -.01952725  00000+0 -16889-1 0  9994
2 67828  42.9994 247.7141 0001364 263.6660 292.6140 15.71269461  5291
STARLINK-36144          
1 67829U 26033J   26072.58334491 -.01956235  00000+0 -17746-1 0  9998
2 67829  42.9994 247.7307 0001285 263.1853 286.4722 15.70151769  5294
STARLINK-36611          
1 67830U 26033K   26072.58334491 -.01953505  00000+0 -16158-1 0  9993
2 67830  42.9993 247.6696 0001426 263.1673 310.8690 15.72312758  5297
STARLINK-36661          
1 67831U 26033L   26072.58334491 -.01951650  00000+0 -20348-1 0  9999
2 67831  42.9994 247.8070 0001293 265.3504 253.6674 15.66798022  5297
STARLINK-36662          
1 67832U 26033M   26072.59614354  .00530671  00000+0  21228-2 0  9992
2 67832  42.9969 246.4969 0002260 291.0893  68.9738 15.84368394  5253
STARLINK-36659          
1 67833U 26033N   26071.84283128 -.00484356  00000+0 -25046-2 0  9993
2 67833  42.9970 252.0859 0001816 307.9497  52.1210 15.81357226  5125
