[{"OBJECT_NAME":"STARLINK-36346","OBJECT_ID":"2026-032X","EPOCH":"2026-03-13T13:57:15.023232","MEAN_MOTION":15.75247674,"ECCENTRICITY":0.00015738,"INCLINATION":97.2847,"RA_OF_ASC_NODE":259.3745,"ARG_OF_PERICENTER":40.7827,"MEAN_ANOMALY":319.3556,"EPHEMERIS_TYPE":0,"CLASSIFICATION_TYPE":"U","NORAD_CAT_ID":67818,"ELEMENT_SET_NO":999,"REV_AT_EPOCH":540,"BSTAR":0.0012986547,"MEAN_MOTION_DOT":0.00198641,"MEAN_MOTION_DDOT":0},{"OBJECT_NAME":"STARLINK-36788","OBJECT_ID":"2026-032Y","EPOCH":"2026-03-13T14:34:51.244320","MEAN_MOTION":15.75233816,"ECCENTRICITY":0.00013676,"INCLINATION":97.2838,"RA_OF_ASC_NODE":259.3385,"ARG_OF_PERICENTER":88.3449,"MEAN_ANOMALY":271.7973,"EPHEMERIS_TYPE":0,"CLASSIFICATION_TYPE":"U","NORAD_CAT_ID":67819,"ELEMENT_SET_NO":999,"REV_AT_EPOCH":540,"BSTAR":0.00090992721,"MEAN_MOTION_DOT":0.00138068,"MEAN_MOTION_DDOT":0},{"OBJECT_NAME":"STARLINK-36353","OBJECT_ID":"2026-032Z","EPOCH":"2026-03-13T14:29:15.715968","MEAN_MOTION":15.7526721,"ECCENTRICITY":0.00014279,"INCLINATION":97.2837,"RA_OF_ASC_NODE":259.3435,"ARG_OF_PERICENTER":99.6986,"MEAN_ANOMALY":260.444,"EPHEMERIS_TYPE":0,"CLASSIFICATION_TYPE":"U","NORAD_CAT_ID":67820,"ELEMENT_SET_NO":999,"REV_AT_EPOCH":540,"BSTAR":0.0014153308,"MEAN_MOTION_DOT":0.00217155,"MEAN_MOTION_DDOT":0},{"OBJECT_NAME":"STARLINK-36644","OBJECT_ID":"2026-033A","EPOCH":"2026-03-13T14:00:01.000224","MEAN_MOTION":15.73249261,"ECCENTRICITY":0.00013202,"INCLINATION":42.9995,"RA_OF_ASC_NODE":247.7483,"ARG_OF_PERICENTER":264.9969,"MEAN_ANOMALY":278.0197,"EPHEMERIS_TYPE":0,"CLASSIFICATION_TYPE":"U","NORAD_CAT_ID":67821,"ELEMENT_SET_NO":999,"REV_AT_EPOCH":528,"BSTAR":-0.015547458,"MEAN_MOTION_DOT":-0.01956884,"MEAN_MOTION_DDOT":0},{"OBJECT_NAME":"STARLINK-36643","OBJECT_ID":"2026-033B","EPOCH":"2026-03-13T14:00:01.000224","MEAN_MOTION":15.68654723,"ECCENTRICITY":0.00013588,"INCLINATION":42.9991,"RA_OF_ASC_NODE":247.8469,"ARG_OF_PERICENTER":269.797,"MEAN_ANOMALY":233.6653,"EPHEMERIS_TYPE":0,"CLASSIFICATION_TYPE":"U","NORAD_CAT_ID":67822,"ELEMENT_SET_NO":999,"REV_AT_EPOCH":528,"BSTAR":-0.018882008,"MEAN_MOTION_DOT":-0.01955056,"MEAN_MOTION_DDOT":0},{"OBJECT_NAME":"STARLINK-36646","OBJECT_ID":"2026-033C","EPOCH":"2026-03-13T14:00:01.000224","MEAN_MOTION":15.71701107,"ECCENTRICITY":0.000137,"INCLINATION":42.9994,"RA_OF_ASC_NODE":247.7584,"ARG_OF_PERICENTER":268.439,"MEAN_ANOMALY":270.3831,"EPHEMERIS_TYPE":0,"CLASSIFICATION_TYPE":"U","NORAD_CAT_ID":67823,"ELEMENT_SET_NO":999,"REV_AT_EPOCH":529,"BSTAR":-0.01661295,"MEAN_MOTION_DOT":-0.01956122,"MEAN_MOTION_DDOT":0},{"OBJECT_NAME":"STARLINK-36647","OBJECT_ID":"2026-033D","EPOCH":"2026-03-13T14:00:01.000224","MEAN_MOTION":15.6982354,"ECCENTRICITY":0.00013273,"INCLINATION":42.9991,"RA_OF_ASC_NODE":247.7936,"ARG_OF_PERICENTER":265.2887,"MEAN_ANOMALY":259.541,"EPHEMERIS_TYPE":0,"CLASSIFICATION_TYPE":"U","NORAD_CAT_ID":67824,"ELEMENT_SET_NO":999,"REV_AT_EPOCH":529,"BSTAR":-0.018019583,"MEAN_MOTION_DOT":-0.01958818,"MEAN_MOTION_DDOT":0},{"OBJECT_NAME":"STARLINK-36648","OBJECT_ID":"2026-033E","EPOCH":"2026-03-13T11:30:24.239808","MEAN_MOTION":15.81733104,"ECCENTRICITY":0.00056118,"INCLINATION":42.9985,"RA_OF_ASC_NODE":248.2594,"ARG_OF_PERICENTER":222.101,"MEAN_ANOMALY":137.9431,"EPHEMERIS_TYPE":0,"CLASSIFICATION_TYPE":"U","NORAD_CAT_ID":67825,"ELEMENT_SET_NO":999,"REV_AT_EPOCH":522,"BSTAR":0.0022692037,"MEAN_MOTION_DOT":0.00499461,"MEAN_MOTION_DDOT":0},{"OBJECT_NAME":"STARLINK-35865","OBJECT_ID":"2026-033F","EPOCH":"2026-03-13T14:00:01.000224","MEAN_MOTION":15.73712691,"ECCENTRICITY":0.00013365,"INCLINATION":42.9993,"RA_OF_ASC_NODE":247.6855,"ARG_OF_PERICENTER":263.2446,"MEAN_ANOMALY":304.5318,"EPHEMERIS_TYPE":0,"CLASSIFICATION_TYPE":"U","NORAD_CAT_ID":67826,"ELEMENT_SET_NO":999,"REV_AT_EPOCH":529,"BSTAR":-0.015348073,"MEAN_MOTION_DOT":-0.01969504,"MEAN_MOTION_DDOT":0},{"OBJECT_NAME":"STARLINK-36289","OBJECT_ID":"2026-033G","EPOCH":"2026-03-13T14:00:01.000224","MEAN_MOTION":15.69396714,"ECCENTRICITY":0.00013244,"INCLINATION":42.9994,"RA_OF_ASC_NODE":247.7726,"ARG_OF_PERICENTER":264.7502,"MEAN_ANOMALY":268.3482,"EPHEMERIS_TYPE":0,"CLASSIFICATION_TYPE":"U","NORAD_CAT_ID":67827,"ELEMENT_SET_NO":999,"REV_AT_EPOCH":529,"BSTAR":-0.018309233,"MEAN_MOTION_DOT":-0.01955385,"MEAN_MOTION_DDOT":0},{"OBJECT_NAME":"STARLINK-36670","OBJECT_ID":"2026-033H","EPOCH":"2026-03-13T14:00:01.000224","MEAN_MOTION":15.71269461,"ECCENTRICITY":0.00013646,"INCLINATION":42.9994,"RA_OF_ASC_NODE":247.7141,"ARG_OF_PERICENTER":263.666,"MEAN_ANOMALY":292.614,"EPHEMERIS_TYPE":0,"CLASSIFICATION_TYPE":"U","NORAD_CAT_ID":67828,"ELEMENT_SET_NO":999,"REV_AT_EPOCH":529,"BSTAR":-0.016888975,"MEAN_MOTION_DOT":-0.01952725,"MEAN_MOTION_DDOT":0},{"OBJECT_NAME":"STARLINK-36144","OBJECT_ID":"2026-033J","EPOCH":"2026-03-13T14:00:01.000224","MEAN_MOTION":15.70151769,"ECCENTRICITY":0.00012855,"INCLINATION":42.9994,"RA_OF_ASC_NODE":247.7307,"ARG_OF_PERICENTER":263.1853,"MEAN_ANOMALY":286.4722,"EPHEMERIS_TYPE":0,"CLASSIFICATION_TYPE":"U","NORAD_CAT_ID":67829,"ELEMENT_SET_NO":999,"REV_AT_EPOCH":529,"BSTAR":-0.017745794,"MEAN_MOTION_DOT":-0.01956235,"MEAN_MOTION_DDOT":0},{"OBJECT_NAME":"STARLINK-36611","OBJECT_ID":"2026-033K","EPOCH":"2026-03-13T14:00:01.000224","MEAN_MOTION":15.72312758,"ECCENTRICITY":0.00014264,"INCLINATION":42.9993,"RA_OF_ASC_NODE":247.6696,"ARG_OF_PERICENTER":263.1673,"MEAN_ANOMALY":310.869,"EPHEMERIS_TYPE":0,"CLASSIFICATION_TYPE":"U","NORAD_CAT_ID":67830,"ELEMENT_SET_NO":999,"REV_AT_EPOCH":529,"BSTAR":-0.016157506,"MEAN_MOTION_DOT":-0.01953505,"MEAN_MOTION_DDOT":0},{"OBJECT_NAME":"STARLINK-36661","OBJECT_ID":"2026-033L","EPOCH":"2026-03-13T14:00:01.000224","MEAN_MOTION":15.66798022,"ECCENTRICITY":0.00012935,"INCLINATION":42.9994,"RA_OF_ASC_NODE":247.807,"ARG_OF_PERICENTER":265.3504,"MEAN_ANOMALY":253.6674,"EPHEMERIS_TYPE":0,"CLASSIFICATION_TYPE":"U","NORAD_CAT_ID":67831,"ELEMENT_SET_NO":999,"REV_AT_EPOCH":529,"BSTAR":-0.020347898,"MEAN_MOTION_DOT":-0.0195165,"MEAN_MOTION_DDOT":0},{"OBJECT_NAME":"STARLINK-36662","OBJECT_ID":"2026-033M","EPOCH":"2026-03-13T14:18:26.801856","MEAN_MOTION":15.84368394,"ECCENTRICITY":0.00022602,"INCLINATION":42.9969,"RA_OF_ASC_NODE":246.4969,"ARG_OF_PERICENTER":291.0893,"MEAN_ANOMALY":68.9738,"EPHEMERIS_TYPE":0,"CLASSIFICATION_TYPE":"U","NORAD_CAT_ID":67832,"ELEMENT_SET_NO":999,"REV_AT_EPOCH":525,"BSTAR":0.0021227805,"MEAN_MOTION_DOT":0.00530671,"MEAN_MOTION_DDOT":0},{"OBJECT_NAME":"STARLINK-36659","OBJECT_ID":"2026-033N","EPOCH":"2026-03-12T20:13:40.622592","MEAN_MOTION":15.81357226,"ECCENTRICITY":0.00018161,"INCLINATION":42.997,"RA_OF_ASC_NODE":252.0859,"ARG_OF_PERICENTER":307.9497,"MEAN_ANOMALY":52.121,"EPHEMERIS_TYPE":0,"CLASSIFICATION_TYPE":"U","NORAD_CAT_ID":67833,"ELEMENT_SET_NO":999,"REV_AT_EPOCH":512,"BSTAR":-0.0025045565,"MEAN_MOTION_DOT":-0.00484356,"MEAN_MOTION_DDOT":0}]
